GLOBALSTAR M084         
1 38040U 11080A   24172.05184566 -.00000101  00000+0  14770-4 0  9991
2 38040  52.0018  70.9445 0000776  40.5955  65.2720 12.62263543576936
GLOBALSTAR M080         
1 38041U 11080B   24172.43567889 -.00000106  00000+0 -12473-4 0  9991
2 38041  52.0074  71.2550 0000669  21.4538 149.9513 12.62261414577101
GLOBALSTAR M082         
1 38042U 11080C   24172.36978713 -.00000085  00000+0  10630-3 0  9993
2 38042  52.0095  26.8656 0001364  94.5898  76.3289 12.62270490577805
GLOBALSTAR M092         
1 38043U 11080D   24172.41912858 -.00000122  00000+0 -10124-3 0  9999
2 38043  52.0075 117.0700 0000569  36.9748 119.2315 12.62262869576264
GLOBALSTAR M090         
1 38044U 11080E   24172.60009215 -.00000084  00000+0  10913-3 0  9997
2 38044  51.9903  20.4390 0001051  94.5634 283.4552 12.62264252577958
GLOBALSTAR M086         
1 38045U 11080F   24172.54697635 -.00000080  00000+0  13392-3 0  9990
2 38045  51.9917  21.1224 0000403 168.3197 209.0706 12.62263531577899
GLOBALSTAR M097         
1 39072U 13005A   24172.33260682 -.00000104  00000+0 -17793-5 0  9994
2 39072  52.0060 295.9592 0000840 135.6756 224.4178 12.62263798525110
GLOBALSTAR M093         
1 39073U 13005B   24172.54354523 -.00000084  00000+0  10793-3 0  9993
2 39073  51.9823 289.1981 0000888 142.9801 217.1127 12.62267654525092
